{
  "links" : {
    "next" : "https://api.nasa.gov/neo/rest/v1/feed?start_date=2012-05-16&end_date=2012-05-16&detailed=true&api_key=t0TVs3DtDT2H8Oy2Zy8m2eVrNsAVKAexjcZXUckd",
    "prev" : "https://api.nasa.gov/neo/rest/v1/feed?start_date=2012-05-14&end_date=2012-05-14&detailed=true&api_key=t0TVs3DtDT2H8Oy2Zy8m2eVrNsAVKAexjcZXUckd",
    "self" : "https://api.nasa.gov/neo/rest/v1/feed?start_date=2012-05-15&end_date=2012-05-15&detailed=true&api_key=t0TVs3DtDT2H8Oy2Zy8m2eVrNsAVKAexjcZXUckd"
  },
  "element_count" : 7,
  "near_earth_objects" : {
    "2012-05-15" : [ {
      "links" : {
        "self" : "https://api.nasa.gov/neo/rest/v1/neo/2318050?api_key=t0TVs3DtDT2H8Oy2Zy8m2eVrNsAVKAexjcZXUckd"
      },
      "neo_reference_id" : "2318050",
      "name" : "318050 (2004 FC32)",
      "nasa_jpl_url" : "http://ssd.jpl.nasa.gov/sbdb.cgi?sstr=2318050",
      "absolute_magnitude_h" : 18.7,
      "estimated_diameter" : {
        "kilometers" : {
          "estimated_diameter_min" : 0.4836764882,
          "estimated_diameter_max" : 1.0815335068
        },
        "meters" : {
          "estimated_diameter_min" : 483.6764882185,
          "estimated_diameter_max" : 1081.533506775
        },
        "miles" : {
          "estimated_diameter_min" : 0.3005425432,
          "estimated_diameter_max" : 0.6720335566
        },
        "feet" : {
          "estimated_diameter_min" : 1586.8651696069,
          "estimated_diameter_max" : 3548.3383903678
        }
      },
      "is_potentially_hazardous_asteroid" : false,
      "close_approach_data" : [ {
        "close_approach_date" : "2012-05-15",
        "epoch_date_close_approach" : 1337065200000,
        "relative_velocity" : {
          "kilometers_per_second" : "5.4592020974",
          "kilometers_per_hour" : "19653.1275506202",
          "miles_per_hour" : "12211.6891716618"
        },
        "miss_distance" : {
          "astronomical" : "0.4236584058",
          "lunar" : "164.8031158447",
          "kilometers" : "63378396",
          "miles" : "39381508"
        },
        "orbiting_body" : "Earth"
      } ],
      "orbital_data" : {
        "orbit_id" : "44",
        "orbit_determination_date" : "2017-04-06 09:23:46",
        "orbit_uncertainty" : "0",
        "minimum_orbit_intersection" : ".256947",
        "jupiter_tisserand_invariant" : "3.829",
        "epoch_osculation" : "2458000.5",
        "eccentricity" : ".3392083421984892",
        "semi_major_axis" : "1.922512678091121",
        "inclination" : "10.93407493700062",
        "ascending_node_longitude" : "80.8439893735615",
        "orbital_period" : "973.6486041136129",
        "perihelion_distance" : "1.270380339700254",
        "perihelion_argument" : "172.7556360532962",
        "aphelion_distance" : "2.574645016481988",
        "perihelion_time" : "2458051.564204459828",
        "mean_anomaly" : "341.1193550446532",
        "mean_motion" : ".3697432507775592",
        "equinox" : "J2000"
      }
    }, {
      "links" : {
        "self" : "https://api.nasa.gov/neo/rest/v1/neo/3092313?api_key=t0TVs3DtDT2H8Oy2Zy8m2eVrNsAVKAexjcZXUckd"
      },
      "neo_reference_id" : "3092313",
      "name" : "(2001 QN142)",
      "nasa_jpl_url" : "http://ssd.jpl.nasa.gov/sbdb.cgi?sstr=3092313",
      "absolute_magnitude_h" : 21.7,
      "estimated_diameter" : {
        "kilometers" : {
          "estimated_diameter_min" : 0.1214940408,
          "estimated_diameter_max" : 0.2716689341
        },
        "meters" : {
          "estimated_diameter_min" : 121.4940407996,
          "estimated_diameter_max" : 271.6689340891
        },
        "miles" : {
          "estimated_diameter_min" : 0.0754928736,
          "estimated_diameter_max" : 0.1688071972
        },
        "feet" : {
          "estimated_diameter_min" : 398.6025088171,
          "estimated_diameter_max" : 891.3023057169
        }
      },
      "is_potentially_hazardous_asteroid" : false,
      "close_approach_data" : [ {
        "close_approach_date" : "2012-05-15",
        "epoch_date_close_approach" : 1337065200000,
        "relative_velocity" : {
          "kilometers_per_second" : "13.4276051033",
          "kilometers_per_hour" : "48339.3783717378",
          "miles_per_hour" : "30036.2098554834"
        },
        "miss_distance" : {
          "astronomical" : "0.1915410729",
          "lunar" : "74.509475708",
          "kilometers" : "28654138",
          "miles" : "17804856"
        },
        "orbiting_body" : "Earth"
      } ],
      "orbital_data" : {
        "orbit_id" : "18",
        "orbit_determination_date" : "2017-04-06 09:16:11",
        "orbit_uncertainty" : "0",
        "minimum_orbit_intersection" : ".113883",
        "jupiter_tisserand_invariant" : "2.780",
        "epoch_osculation" : "2458000.5",
        "eccentricity" : ".6847352093410274",
        "semi_major_axis" : "3.115248198953162",
        "inclination" : "10.24704454164955",
        "ascending_node_longitude" : "164.0614749323441",
        "orbital_period" : "2008.340782060105",
        "perihelion_distance" : ".98212807129371",
        "perihelion_argument" : "110.4712393187623",
        "aphelion_distance" : "5.248368326612614",
        "perihelion_time" : "2458095.347133895652",
        "mean_anomaly" : "342.9984191391017",
        "mean_motion" : ".1792524472020735",
        "equinox" : "J2000"
      }
    }, {
      "links" : {
        "self" : "https://api.nasa.gov/neo/rest/v1/neo/3566699?api_key=t0TVs3DtDT2H8Oy2Zy8m2eVrNsAVKAexjcZXUckd"
      },
      "neo_reference_id" : "3566699",
      "name" : "(2011 KY15)",
      "nasa_jpl_url" : "http://ssd.jpl.nasa.gov/sbdb.cgi?sstr=3566699",
      "absolute_magnitude_h" : 24.1,
      "estimated_diameter" : {
        "kilometers" : {
          "estimated_diameter_min" : 0.040230458,
          "estimated_diameter_max" : 0.0899580388
        },
        "meters" : {
          "estimated_diameter_min" : 40.2304579834,
          "estimated_diameter_max" : 89.9580388169
        },
        "miles" : {
          "estimated_diameter_min" : 0.0249980399,
          "estimated_diameter_max" : 0.0558973165
        },
        "feet" : {
          "estimated_diameter_min" : 131.9896957704,
          "estimated_diameter_max" : 295.1379320721
        }
      },
      "is_potentially_hazardous_asteroid" : false,
      "close_approach_data" : [ {
        "close_approach_date" : "2012-05-15",
        "epoch_date_close_approach" : 1337065200000,
        "relative_velocity" : {
          "kilometers_per_second" : "17.563799252",
          "kilometers_per_hour" : "63229.6773071827",
          "miles_per_hour" : "39288.4625467881"
        },
        "miss_distance" : {
          "astronomical" : "0.1568217434",
          "lunar" : "61.0036582947",
          "kilometers" : "23460198",
          "miles" : "14577492"
        },
        "orbiting_body" : "Earth"
      } ],
      "orbital_data" : {
        "orbit_id" : "9",
        "orbit_determination_date" : "2017-04-06 08:53:24",
        "orbit_uncertainty" : "8",
        "minimum_orbit_intersection" : ".0167161",
        "jupiter_tisserand_invariant" : "8.560",
        "epoch_osculation" : "2455710.5",
        "eccentricity" : ".6028069931029314",
        "semi_major_axis" : ".6487412764177625",
        "inclination" : "16.86324974114843",
        "ascending_node_longitude" : "242.9532515031493",
        "orbital_period" : "190.8559585881112",
        "perihelion_distance" : ".2576754982786134",
        "perihelion_argument" : "185.7754515858898",
        "aphelion_distance" : "1.039807054556912",
        "perihelion_time" : "2455620.036290517714",
        "mean_anomaly" : "170.6361994382691",
        "mean_motion" : "1.886239249029269",
        "equinox" : "J2000"
      }
    } ]
  }
}